[{"OBJECT_NAME":"STARLINK-30853","OBJECT_ID":"2023-171G","EPOCH":"2026-03-09T22:00:01.999584","MEAN_MOTION":15.26705896,"ECCENTRICITY":0.00015437,"INCLINATION":42.9997,"RA_OF_ASC_NODE":283.9027,"ARG_OF_PERICENTER":283.8467,"MEAN_ANOMALY":298.2086,"EPHEMERIS_TYPE":0,"CLASSIFICATION_TYPE":"U","NORAD_CAT_ID":58236,"ELEMENT_SET_NO":999,"REV_AT_EPOCH":578,"BSTAR":0.0012273819,"MEAN_MOTION_DOT":0.00032776,"MEAN_MOTION_DDOT":0},{"OBJECT_NAME":"BANDWAGON-2 OBJECT D","OBJECT_ID":"2024-247D","EPOCH":"2026-03-09T12:32:33.670752","MEAN_MOTION":15.29076102,"ECCENTRICITY":0.00034883,"INCLINATION":44.9954,"RA_OF_ASC_NODE":115.671,"ARG_OF_PERICENTER":351.1453,"MEAN_ANOMALY":8.9368,"EPHEMERIS_TYPE":0,"CLASSIFICATION_TYPE":"U","NORAD_CAT_ID":62380,"ELEMENT_SET_NO":999,"REV_AT_EPOCH":6773,"BSTAR":0.00040119131,"MEAN_MOTION_DOT":0.00011259,"MEAN_MOTION_DDOT":0}]
